[{"OBJECT_NAME":"SHIJIAN-6 02B (SJ-6 02B)","OBJECT_ID":"2006-046B","EPOCH":"2026-03-09T23:09:06.940224","MEAN_MOTION":15.01001333,"ECCENTRICITY":0.00140021,"INCLINATION":97.7065,"RA_OF_ASC_NODE":98.697,"ARG_OF_PERICENTER":42.7506,"MEAN_ANOMALY":317.4805,"EPHEMERIS_TYPE":0,"CLASSIFICATION_TYPE":"U","NORAD_CAT_ID":29506,"ELEMENT_SET_NO":999,"REV_AT_EPOCH":5585,"BSTAR":0.00024683398,"MEAN_MOTION_DOT":3.096e-5,"MEAN_MOTION_DDOT":0},{"OBJECT_NAME":"STARLINK-4380","OBJECT_ID":"2022-105C","EPOCH":"2026-03-09T15:23:26.573856","MEAN_MOTION":15.01236314,"ECCENTRICITY":8.32e-5,"INCLINATION":97.6031,"RA_OF_ASC_NODE":310.1536,"ARG_OF_PERICENTER":108.7085,"MEAN_ANOMALY":251.423,"EPHEMERIS_TYPE":0,"CLASSIFICATION_TYPE":"U","NORAD_CAT_ID":53650,"ELEMENT_SET_NO":999,"REV_AT_EPOCH":19322,"BSTAR":0.00076256,"MEAN_MOTION_DOT":9.743e-5,"MEAN_MOTION_DDOT":0}]
